[{"OBJECT_NAME":"GALAXY 32 (G-32)","OBJECT_ID":"2022-153B","EPOCH":"2026-03-03T11:55:50.019744","MEAN_MOTION":1.00269468,"ECCENTRICITY":0.00030055,"INCLINATION":0.0219,"RA_OF_ASC_NODE":134.8403,"ARG_OF_PERICENTER":219.9556,"MEAN_ANOMALY":254.4371,"EPHEMERIS_TYPE":0,"CLASSIFICATION_TYPE":"U","NORAD_CAT_ID":54244,"ELEMENT_SET_NO":999,"REV_AT_EPOCH":1208,"BSTAR":0,"MEAN_MOTION_DOT":0,"MEAN_MOTION_DDOT":0},{"OBJECT_NAME":"EUTELSAT 10B","OBJECT_ID":"2022-157A","EPOCH":"2026-03-03T08:59:11.737824","MEAN_MOTION":1.00267833,"ECCENTRICITY":0.00011425,"INCLINATION":0.0589,"RA_OF_ASC_NODE":101.4865,"ARG_OF_PERICENTER":22.8239,"MEAN_ANOMALY":181.5711,"EPHEMERIS_TYPE":0,"CLASSIFICATION_TYPE":"U","NORAD_CAT_ID":54259,"ELEMENT_SET_NO":999,"REV_AT_EPOCH":1196,"BSTAR":0,"MEAN_MOTION_DOT":5.2e-7,"MEAN_MOTION_DDOT":0},{"OBJECT_NAME":"GALAXY 35 (G-35)","OBJECT_ID":"2022-170A","EPOCH":"2026-03-03T13:37:55.829856","MEAN_MOTION":1.00271384,"ECCENTRICITY":0.0002071,"INCLINATION":0.0225,"RA_OF_ASC_NODE":117.0696,"ARG_OF_PERICENTER":224.4258,"MEAN_ANOMALY":291.2099,"EPHEMERIS_TYPE":0,"CLASSIFICATION_TYPE":"U","NORAD_CAT_ID":54741,"ELEMENT_SET_NO":999,"REV_AT_EPOCH":1183,"BSTAR":0,"MEAN_MOTION_DOT":-1.77e-6,"MEAN_MOTION_DDOT":0},{"OBJECT_NAME":"GALAXY 36 (G-36)","OBJECT_ID":"2022-170B","EPOCH":"2026-03-03T13:39:10.711008","MEAN_MOTION":1.00270752,"ECCENTRICITY":0.0002038,"INCLINATION":0.0143,"RA_OF_ASC_NODE":147.3008,"ARG_OF_PERICENTER":248.2011,"MEAN_ANOMALY":241.6031,"EPHEMERIS_TYPE":0,"CLASSIFICATION_TYPE":"U","NORAD_CAT_ID":54742,"ELEMENT_SET_NO":999,"REV_AT_EPOCH":1171,"BSTAR":0,"MEAN_MOTION_DOT":-1.99e-6,"MEAN_MOTION_DDOT":0},{"OBJECT_NAME":"METEOSAT-12 (MTG-I1)","OBJECT_ID":"2022-170C","EPOCH":"2026-03-03T14:04:30.783360","MEAN_MOTION":1.00274767,"ECCENTRICITY":0.0001882,"INCLINATION":0.745,"RA_OF_ASC_NODE":29.0227,"ARG_OF_PERICENTER":282.4552,"MEAN_ANOMALY":60.7136,"EPHEMERIS_TYPE":0,"CLASSIFICATION_TYPE":"U","NORAD_CAT_ID":54743,"ELEMENT_SET_NO":999,"REV_AT_EPOCH":1191,"BSTAR":0,"MEAN_MOTION_DOT":-2.1e-7,"MEAN_MOTION_DDOT":0},{"OBJECT_NAME":"SHIJIAN-23 (SJ-23)","OBJECT_ID":"2023-002A","EPOCH":"2026-03-03T12:32:16.140192","MEAN_MOTION":1.00488571,"ECCENTRICITY":0.0005865,"INCLINATION":3.4461,"RA_OF_ASC_NODE":79.6665,"ARG_OF_PERICENTER":260.7345,"MEAN_ANOMALY":137.7681,"EPHEMERIS_TYPE":0,"CLASSIFICATION_TYPE":"U","NORAD_CAT_ID":55131,"ELEMENT_SET_NO":999,"REV_AT_EPOCH":1145,"BSTAR":0,"MEAN_MOTION_DOT":-3.31e-6,"MEAN_MOTION_DDOT":0},{"OBJECT_NAME":"APSTAR-6E","OBJECT_ID":"2023-005A","EPOCH":"2026-03-03T19:50:47.883840","MEAN_MOTION":1.00271906,"ECCENTRICITY":0.0001453,"INCLINATION":0.0553,"RA_OF_ASC_NODE":253.0692,"ARG_OF_PERICENTER":48.5839,"MEAN_ANOMALY":291.6252,"EPHEMERIS_TYPE":0,"CLASSIFICATION_TYPE":"U","NORAD_CAT_ID":55239,"ELEMENT_SET_NO":999,"REV_AT_EPOCH":1763,"BSTAR":0,"MEAN_MOTION_DOT":-3.31e-6,"MEAN_MOTION_DDOT":0},{"OBJECT_NAME":"USA 342","OBJECT_ID":"2023-008A","EPOCH":"2026-02-28T12:35:41.157024","MEAN_MOTION":1.00275491,"ECCENTRICITY":3.35e-5,"INCLINATION":0.0119,"RA_OF_ASC_NODE":123.7851,"ARG_OF_PERICENTER":334.6722,"MEAN_ANOMALY":272.6049,"EPHEMERIS_TYPE":0,"CLASSIFICATION_TYPE":"U","NORAD_CAT_ID":55263,"ELEMENT_SET_NO":999,"REV_AT_EPOCH":1142,"BSTAR":0,"MEAN_MOTION_DOT":1.21e-6,"MEAN_MOTION_DDOT":0},{"OBJECT_NAME":"LDPE-3A","OBJECT_ID":"2023-008B","EPOCH":"2026-03-03T16:49:29.971776","MEAN_MOTION":0.99221103,"ECCENTRICITY":5.94e-5,"INCLINATION":2.073,"RA_OF_ASC_NODE":83.0296,"ARG_OF_PERICENTER":55.2261,"MEAN_ANOMALY":133.7826,"EPHEMERIS_TYPE":0,"CLASSIFICATION_TYPE":"U","NORAD_CAT_ID":55264,"ELEMENT_SET_NO":999,"REV_AT_EPOCH":1076,"BSTAR":0,"MEAN_MOTION_DOT":6.0e-7,"MEAN_MOTION_DDOT":0},{"OBJECT_NAME":"ELEKTRO-L 4","OBJECT_ID":"2023-016A","EPOCH":"2026-03-03T02:13:25.018752","MEAN_MOTION":1.00271879,"ECCENTRICITY":0.0001786,"INCLINATION":0.1047,"RA_OF_ASC_NODE":292.5127,"ARG_OF_PERICENTER":353.9108,"MEAN_ANOMALY":73.5208,"EPHEMERIS_TYPE":0,"CLASSIFICATION_TYPE":"U","NORAD_CAT_ID":55506,"ELEMENT_SET_NO":999,"REV_AT_EPOCH":1127,"BSTAR":0,"MEAN_MOTION_DOT":-7.5e-7,"MEAN_MOTION_DDOT":0},{"OBJECT_NAME":"AMAZONAS NEXUS","OBJECT_ID":"2023-017A","EPOCH":"2026-03-03T18:55:10.428096","MEAN_MOTION":1.00269849,"ECCENTRICITY":0.0004734,"INCLINATION":0.0422,"RA_OF_ASC_NODE":44.3976,"ARG_OF_PERICENTER":319.2689,"MEAN_ANOMALY":20.6596,"EPHEMERIS_TYPE":0,"CLASSIFICATION_TYPE":"U","NORAD_CAT_ID":55508,"ELEMENT_SET_NO":999,"REV_AT_EPOCH":598,"BSTAR":0,"MEAN_MOTION_DOT":-2.96e-6,"MEAN_MOTION_DDOT":0},{"OBJECT_NAME":"ZHONGXING-26","OBJECT_ID":"2023-023A","EPOCH":"2026-03-01T11:19:35.012064","MEAN_MOTION":1.00270209,"ECCENTRICITY":0.00033827,"INCLINATION":0.0638,"RA_OF_ASC_NODE":73.822,"ARG_OF_PERICENTER":319.4328,"MEAN_ANOMALY":61.007,"EPHEMERIS_TYPE":0,"CLASSIFICATION_TYPE":"U","NORAD_CAT_ID":55686,"ELEMENT_SET_NO":999,"REV_AT_EPOCH":1115,"BSTAR":0,"MEAN_MOTION_DOT":-3.72e-6,"MEAN_MOTION_DDOT":0},{"OBJECT_NAME":"LUCH-5X (OLYMP-K 2)","OBJECT_ID":"2023-031A","EPOCH":"2026-03-03T13:36:01.267776","MEAN_MOTION":1.00273409,"ECCENTRICITY":0.0001882,"INCLINATION":0.0258,"RA_OF_ASC_NODE":89.6446,"ARG_OF_PERICENTER":122.4338,"MEAN_ANOMALY":215.2323,"EPHEMERIS_TYPE":0,"CLASSIFICATION_TYPE":"U","NORAD_CAT_ID":55841,"ELEMENT_SET_NO":999,"REV_AT_EPOCH":1087,"BSTAR":0,"MEAN_MOTION_DOT":1.8e-7,"MEAN_MOTION_DDOT":0},{"OBJECT_NAME":"GAOFEN-13 02","OBJECT_ID":"2023-036A","EPOCH":"2026-03-03T18:29:38.608800","MEAN_MOTION":1.00272922,"ECCENTRICITY":0.0005201,"INCLINATION":1.0327,"RA_OF_ASC_NODE":347.7043,"ARG_OF_PERICENTER":333.0311,"MEAN_ANOMALY":266.344,"EPHEMERIS_TYPE":0,"CLASSIFICATION_TYPE":"U","NORAD_CAT_ID":55912,"ELEMENT_SET_NO":999,"REV_AT_EPOCH":1103,"BSTAR":0,"MEAN_MOTION_DOT":-2.33e-6,"MEAN_MOTION_DDOT":0},{"OBJECT_NAME":"SES-18","OBJECT_ID":"2023-038A","EPOCH":"2026-03-03T13:35:11.091840","MEAN_MOTION":1.00272207,"ECCENTRICITY":0.0002492,"INCLINATION":0.0619,"RA_OF_ASC_NODE":273.2992,"ARG_OF_PERICENTER":33.4174,"MEAN_ANOMALY":315.2907,"EPHEMERIS_TYPE":0,"CLASSIFICATION_TYPE":"U","NORAD_CAT_ID":55970,"ELEMENT_SET_NO":999,"REV_AT_EPOCH":1104,"BSTAR":0,"MEAN_MOTION_DOT":-1.15e-6,"MEAN_MOTION_DDOT":0},{"OBJECT_NAME":"SES-19","OBJECT_ID":"2023-038B","EPOCH":"2026-03-03T16:51:29.780928","MEAN_MOTION":1.00272119,"ECCENTRICITY":0.0001741,"INCLINATION":0.0549,"RA_OF_ASC_NODE":286.7591,"ARG_OF_PERICENTER":50.2099,"MEAN_ANOMALY":302.4492,"EPHEMERIS_TYPE":0,"CLASSIFICATION_TYPE":"U","NORAD_CAT_ID":55971,"ELEMENT_SET_NO":999,"REV_AT_EPOCH":1102,"BSTAR":0,"MEAN_MOTION_DOT":7.4e-7,"MEAN_MOTION_DDOT":0},{"OBJECT_NAME":"INTELSAT 40E (IS-40E)","OBJECT_ID":"2023-052A","EPOCH":"2026-03-03T10:13:03.465984","MEAN_MOTION":1.00271093,"ECCENTRICITY":7.301e-5,"INCLINATION":0.0103,"RA_OF_ASC_NODE":138.3767,"ARG_OF_PERICENTER":205.6738,"MEAN_ANOMALY":239.387,"EPHEMERIS_TYPE":0,"CLASSIFICATION_TYPE":"U","NORAD_CAT_ID":56174,"ELEMENT_SET_NO":999,"REV_AT_EPOCH":1076,"BSTAR":0,"MEAN_MOTION_DOT":-1.89e-6,"MEAN_MOTION_DDOT":0}]
