GALAXY 32 (G-32)        
1 54244U 22153B   26062.49710671  .00000000  00000+0  00000+0 0  9991
2 54244   0.0219 134.8403 0003005 219.9556 254.4371  1.00269468 12084
EUTELSAT 10B            
1 54259U 22157A   26062.37444141  .00000052  00000+0  00000+0 0  9991
2 54259   0.0589 101.4865 0001142  22.8239 181.5711  1.00267833 11969
GALAXY 35 (G-35)        
1 54741U 22170A   26062.56800729 -.00000177  00000+0  00000+0 0  9990
2 54741   0.0225 117.0696 0002071 224.4258 291.2099  1.00271384 11830
GALAXY 36 (G-36)        
1 54742U 22170B   26062.56887397 -.00000199  00000+0  00000+0 0  9991
2 54742   0.0143 147.3008 0002038 248.2011 241.6031  1.00270752 11717
METEOSAT-12 (MTG-I1)    
1 54743U 22170C   26062.58646740 -.00000021  00000+0  00000+0 0  9993
2 54743   0.7450  29.0227 0001882 282.4552  60.7136  1.00274767 11919
SHIJIAN-23 (SJ-23)      
1 55131U 23002A   26062.52240903 -.00000331  00000+0  00000+0 0  9999
2 55131   3.4461  79.6665 0005865 260.7345 137.7681  1.00488571 11453
APSTAR-6E               
1 55239U 23005A   26062.82694310 -.00000331  00000+0  00000+0 0  9999
2 55239   0.0553 253.0692 0001453  48.5839 291.6252  1.00271906 17636
USA 342                 
1 55263U 23008A   26059.52478191  .00000121  00000+0  00000+0 0  9995
2 55263   0.0119 123.7851 0000335 334.6722 272.6049  1.00275491 11426
LDPE-3A                 
1 55264U 23008B   26062.70104134  .00000060  00000+0  00000+0 0  9995
2 55264   2.0730  83.0296 0000594  55.2261 133.7826  0.99221103 10764
ELEKTRO-L 4             
1 55506U 23016A   26062.09265068 -.00000075  00000+0  00000+0 0  9996
2 55506   0.1047 292.5127 0001786 353.9108  73.5208  1.00271879 11275
AMAZONAS NEXUS          
1 55508U 23017A   26062.78831514 -.00000296  00000+0  00000+0 0  9995
2 55508   0.0422  44.3976 0004734 319.2689  20.6596  1.00269849  5981
ZHONGXING-26            
1 55686U 23023A   26060.47193301 -.00000372  00000+0  00000+0 0  9993
2 55686   0.0638  73.8220 0003382 319.4328  61.0070  1.00270209 11150
LUCH-5X (OLYMP-K 2)     
1 55841U 23031A   26062.56668134  .00000018  00000+0  00000+0 0  9994
2 55841   0.0258  89.6446 0001882 122.4338 215.2323  1.00273409 10879
GAOFEN-13 02            
1 55912U 23036A   26062.77058575 -.00000233  00000+0  00000+0 0  9993
2 55912   1.0327 347.7043 0005201 333.0311 266.3440  1.00272922 11032
SES-18                  
1 55970U 23038A   26062.56610060 -.00000115  00000+0  00000+0 0  9998
2 55970   0.0619 273.2992 0002492  33.4174 315.2907  1.00272207 11041
SES-19                  
1 55971U 23038B   26062.70242802  .00000074  00000+0  00000+0 0  9993
2 55971   0.0549 286.7591 0001741  50.2099 302.4492  1.00272119 11024
INTELSAT 40E (IS-40E)   
1 56174U 23052A   26062.42573456 -.00000189  00000+0  00000+0 0  9994
2 56174   0.0103 138.3767 0000730 205.6738 239.3870  1.00271093 10764
